{
    "links": {
        "self": "http://www.neowsapp.com/rest/v1/neo/3879230?api_key=iIulBulltgU6a56xZRHN4H3l9WmuAYTsLGpBGhQ2"
    },
    "id": "3879230",
    "neo_reference_id": "3879230",
    "name": "(2019 UN)",
    "designation": "2019 UN",
    "nasa_jpl_url": "http://ssd.jpl.nasa.gov/sbdb.cgi?sstr=3879230",
    "absolute_magnitude_h": 24.9,
    "estimated_diameter": {
        "kilometers": {
            "estimated_diameter_min": 0.0278326768,
            "estimated_diameter_max": 0.0622357573
        },
        "meters": {
            "estimated_diameter_min": 27.8326768072,
            "estimated_diameter_max": 62.2357573367
        },
        "miles": {
            "estimated_diameter_min": 0.0172944182,
            "estimated_diameter_max": 0.0386714948
        },
        "feet": {
            "estimated_diameter_min": 91.3145593761,
            "estimated_diameter_max": 204.1855621004
        }
    },
    "is_potentially_hazardous_asteroid": false,
    "close_approach_data": [
        {
            "close_approach_date": "2019-10-06",
            "close_approach_date_full": "2019-Oct-06 15:45",
            "epoch_date_close_approach": 1570376700000,
            "relative_velocity": {
                "kilometers_per_second": "10.4055605964",
                "kilometers_per_hour": "37460.0181468622",
                "miles_per_hour": "23276.1984979767"
            },
            "miss_distance": {
                "astronomical": "0.0779859834",
                "lunar": "30.3365475426",
                "kilometers": "11666537.006495358",
                "miles": "7249249.9436496204"
            },
            "orbiting_body": "Earth"
        }
    ],
    "orbital_data": {
        "orbit_id": "5",
        "orbit_determination_date": "2019-10-25 05:59:25",
        "first_observation_date": "2019-10-16",
        "last_observation_date": "2019-10-24",
        "data_arc_in_days": 8,
        "observations_used": 28,
        "orbit_uncertainty": "8",
        "minimum_orbit_intersection": ".020812",
        "jupiter_tisserand_invariant": "2.987",
        "epoch_osculation": "2458777.5",
        "eccentricity": ".6351713669138697",
        "semi_major_axis": "2.804791563295034",
        "inclination": "3.937778128838886",
        "ascending_node_longitude": ".2115563519922419",
        "orbital_period": "1715.731463297912",
        "perihelion_distance": "1.023268272128438",
        "perihelion_argument": "348.8401519103736",
        "aphelion_distance": "4.586314854461631",
        "perihelion_time": "2458746.058225093692",
        "mean_anomaly": "6.597208950469362",
        "mean_motion": ".2098230449816558",
        "equinox": "J2000",
        "orbit_class": {
            "orbit_class_type": "AMO",
            "orbit_class_description": "Near-Earth asteroid orbits similar to that of 1221 Amor",
            "orbit_class_range": "1.017 AU < q (perihelion) < 1.3 AU"
        }
    },
    "is_sentry_object": false
}